{"type": "FeatureCollection", "features": [ {"type": "Feature", "properties": {"norad_id": 39122, "name": "EUTELSAT 117 WEST A", "group": "eutelsat", "lat": -0.03377074421223561, "lon": -90.36429503989397, "alt_km": 35773.50921580478, "timestamp": "2025-12-07T20:38:13.748822+00:00", "meta": {"OBJECT_NAME": "EUTELSAT 117 WEST A", "OBJECT_ID": "2013-012A", "EPOCH": "2025-12-07T07:10:41.282688", "MEAN_MOTION": 1.00270117, "ECCENTRICITY": 0.00031502, "INCLINATION": 0.0139, "RA_OF_ASC_NODE": 332.4793, "ARG_OF_PERICENTER": 284.5051, "MEAN_ANOMALY": 170.2153, "EPHEMERIS_TYPE": 0, "CLASSIFICATION_TYPE": "U", "NORAD_CAT_ID": 39122, "ELEMENT_SET_NO": 999, "REV_AT_EPOCH": 4650, "BSTAR": 0, "MEAN_MOTION_DOT": -8e-08, "MEAN_MOTION_DDOT": 0}, "tle": {"line1": "1 39122U 13012A   25341.29908892 -.00000008  00000+0  00000+0 0  9993", "line2": "2 39122   0.0139 332.4793 0003150 284.5051 170.2153  1.00270117 46500"}}, "geometry": {"type": "Point", "coordinates": [-90.36429503989397, -0.03377074421223561]}}, {"type": "Feature", "properties": {"norad_id": 39163, "name": "EUTELSAT 7B", "group": "eutelsat", "lat": 0.04527347691872445, "lon": 33.46327193240635, "alt_km": 35783.36818153805, "timestamp": "2025-12-07T20:38:13.748835+00:00", "meta": {"OBJECT_NAME": "EUTELSAT 7B", "OBJECT_ID": "2013-022A", "EPOCH": "2025-12-07T06:49:09.134400", "MEAN_MOTION": 1.00270747, "ECCENTRICITY": 0.00044819, "INCLINATION": 0.0694, "RA_OF_ASC_NODE": 9.5468, "ARG_OF_PERICENTER": 303.1607, "MEAN_ANOMALY": 232.877, "EPHEMERIS_TYPE": 0, "CLASSIFICATION_TYPE": "U", "NORAD_CAT_ID": 39163, "ELEMENT_SET_NO": 999, "REV_AT_EPOCH": 4603, "BSTAR": 0, "MEAN_MOTION_DOT": 5.2e-07, "MEAN_MOTION_DDOT": 0}, "tle": {"line1": "1 39163U 13022A   25341.28413350  .00000052  00000+0  00000+0 0  9996", "line2": "2 39163   0.0694   9.5468 0004481 303.1607 232.8770  1.00270747 46032"}}, "geometry": {"type": "Point", "coordinates": [33.46327193240635, 0.04527347691872445]}}, {"type": "Feature", "properties": {"norad_id": 39612, "name": "EXPRESS-AT1", "group": "eutelsat", "lat": 0.03156873058102683, "lon": 82.42510428051091, "alt_km": 35786.2766550718, "timestamp": "2025-12-07T20:38:13.748846+00:00", "meta": {"OBJECT_NAME": "EXPRESS-AT1", "OBJECT_ID": "2014-010A", "EPOCH": "2025-12-07T05:20:25.132704", "MEAN_MOTION": 1.00272011, "ECCENTRICITY": 5.174e-05, "INCLINATION": 0.0179, "RA_OF_ASC_NODE": 308.4123, "ARG_OF_PERICENTER": 232.3307, "MEAN_ANOMALY": 31.613, "EPHEMERIS_TYPE": 0, "CLASSIFICATION_TYPE": "U", "NORAD_CAT_ID": 39612, "ELEMENT_SET_NO": 999, "REV_AT_EPOCH": 4289, "BSTAR": 0, "MEAN_MOTION_DOT": 8.3e-07, "MEAN_MOTION_DDOT": 0}, "tle": {"line1": "1 39612U 14010A   25341.22251311  .00000083  00000+0  00000+0 0  9998", "line2": "2 39612   0.0179 308.4123 0000517 232.3307  31.6130  1.00272011 42895"}}, "geometry": {"type": "Point", "coordinates": [82.42510428051091, 0.03156873058102683]}}, {"type": "Feature", "properties": {"norad_id": 39613, "name": "EXPRESS-AT2", "group": "eutelsat", "lat": 0.002562116898759052, "lon": 166.26335063932495, "alt_km": 35790.097435756375, "timestamp": "2025-12-07T20:38:13.748858+00:00", "meta": {"OBJECT_NAME": "EXPRESS-AT2", "OBJECT_ID": "2014-010B", "EPOCH": "2025-12-07T04:35:38.605920", "MEAN_MOTION": 1.00268934, "ECCENTRICITY": 0.00014037, "INCLINATION": 0.0173, "RA_OF_ASC_NODE": 356.0304, "ARG_OF_PERICENTER": 292.4604, "MEAN_ANOMALY": 356.4947, "EPHEMERIS_TYPE": 0, "CLASSIFICATION_TYPE": "U", "NORAD_CAT_ID": 39613, "ELEMENT_SET_NO": 999, "REV_AT_EPOCH": 4257, "BSTAR": 0, "MEAN_MOTION_DOT": 0, "MEAN_MOTION_DDOT": 0}, "tle": {"line1": "1 39613U 14010B   25341.19141905  .00000000  00000+0  00000+0 0  9991", "line2": "2 39613   0.0173 356.0304 0001403 292.4604 356.4947  1.00268934 42570"}}, "geometry": {"type": "Point", "coordinates": [166.26335063932495, 0.002562116898759052]}}, {"type": "Feature", "properties": {"norad_id": 39773, "name": "EUTELSAT 3B", "group": "eutelsat", "lat": 0.035295611919402406, "lon": 29.548456822824814, "alt_km": 35804.37637053805, "timestamp": "2025-12-07T20:38:13.748870+00:00", "meta": {"OBJECT_NAME": "EUTELSAT 3B", "OBJECT_ID": "2014-030A", "EPOCH": "2025-12-07T06:48:01.742400", "MEAN_MOTION": 1.00271879, "ECCENTRICITY": 0.00046944, "INCLINATION": 0.0655, "RA_OF_ASC_NODE": 12.2478, "ARG_OF_PERICENTER": 219.4188, "MEAN_ANOMALY": 309.7493, "EPHEMERIS_TYPE": 0, "CLASSIFICATION_TYPE": "U", "NORAD_CAT_ID": 39773, "ELEMENT_SET_NO": 999, "REV_AT_EPOCH": 4214, "BSTAR": 0, "MEAN_MOTION_DOT": 2.5e-07, "MEAN_MOTION_DDOT": 0}, "tle": {"line1": "1 39773U 14030A   25341.28335350  .00000025  00000+0  00000+0 0  9996", "line2": "2 39773   0.0655  12.2478 0004694 219.4188 309.7493  1.00271879 42148"}}, "geometry": {"type": "Point", "coordinates": [29.548456822824814, 0.035295611919402406]}}, {"type": "Feature", "properties": {"norad_id": 40425, "name": "EUTELSAT 115 WEST B", "group": "eutelsat", "lat": 0.012435589010983624, "lon": -88.44553478710762, "alt_km": 35787.3581533387, "timestamp": "2025-12-07T20:38:13.748882+00:00", "meta": {"OBJECT_NAME": "EUTELSAT 115 WEST B", "OBJECT_ID": "2015-010B", "EPOCH": "2025-12-06T10:47:28.419072", "MEAN_MOTION": 1.00271104, "ECCENTRICITY": 3.126e-05, "INCLINATION": 0.007, "RA_OF_ASC_NODE": 143.6476, "ARG_OF_PERICENTER": 276.9333, "MEAN_ANOMALY": 61.9058, "EPHEMERIS_TYPE": 0, "CLASSIFICATION_TYPE": "U", "NORAD_CAT_ID": 40425, "ELEMENT_SET_NO": 999, "REV_AT_EPOCH": 3946, "BSTAR": 0, "MEAN_MOTION_DOT": -1.8e-07, "MEAN_MOTION_DDOT": 0}, "tle": {"line1": "1 40425U 15010B   25340.44963448 -.00000018  00000+0  00000+0 0  9996", "line2": "2 40425   0.0070 143.6476 0000312 276.9333  61.9058  1.00271104 39461"}}, "geometry": {"type": "Point", "coordinates": [-88.44553478710762, 0.012435589010983624]}}, {"type": "Feature", "properties": {"norad_id": 40875, "name": "EUTELSAT 8 WEST B", "group": "eutelsat", "lat": 0.03854617785336386, "lon": 18.480516641426455, "alt_km": 35795.11014251844, "timestamp": "2025-12-07T20:38:13.748894+00:00", "meta": {"OBJECT_NAME": "EUTELSAT 8 WEST B", "OBJECT_ID": "2015-039B", "EPOCH": "2025-12-07T06:44:54.540384", "MEAN_MOTION": 1.00271381, "ECCENTRICITY": 0.00041316, "INCLINATION": 0.0646, "RA_OF_ASC_NODE": 355.8091, "ARG_OF_PERICENTER": 261.9788, "MEAN_ANOMALY": 271.7589, "EPHEMERIS_TYPE": 0, "CLASSIFICATION_TYPE": "U", "NORAD_CAT_ID": 40875, "ELEMENT_SET_NO": 999, "REV_AT_EPOCH": 3773, "BSTAR": 0, "MEAN_MOTION_DOT": -6.1e-07, "MEAN_MOTION_DDOT": 0}, "tle": {"line1": "1 40875U 15039B   25341.28118681 -.00000061  00000+0  00000+0 0  9998", "line2": "2 40875   0.0646 355.8091 0004131 261.9788 271.7589  1.00271381 37735"}}, "geometry": {"type": "Point", "coordinates": [18.480516641426455, 0.03854617785336386]}}, {"type": "Feature", "properties": {"norad_id": 41310, "name": "EUTELSAT 9B", "group": "eutelsat", "lat": -0.028269923345810088, "lon": 35.47557914169935, "alt_km": 35798.71112451044, "timestamp": "2025-12-07T20:38:13.748905+00:00", "meta": {"OBJECT_NAME": "EUTELSAT 9B", "OBJECT_ID": "2016-005A", "EPOCH": "2025-12-07T06:49:46.574112", "MEAN_MOTION": 1.00272717, "ECCENTRICITY": 0.00050188, "INCLINATION": 0.076, "RA_OF_ASC_NODE": 75.8994, "ARG_OF_PERICENTER": 192.158, "MEAN_ANOMALY": 279.6964, "EPHEMERIS_TYPE": 0, "CLASSIFICATION_TYPE": "U", "NORAD_CAT_ID": 41310, "ELEMENT_SET_NO": 999, "REV_AT_EPOCH": 3619, "BSTAR": 0, "MEAN_MOTION_DOT": 6.6e-07, "MEAN_MOTION_DDOT": 0}, "tle": {"line1": "1 41310U 16005A   25341.28456683  .00000066  00000+0  00000+0 0  9998", "line2": "2 41310   0.0760  75.8994 0005018 192.1580 279.6964  1.00272717 36195"}}, "geometry": {"type": "Point", "coordinates": [35.47557914169935, -0.028269923345810088]}}, {"type": "Feature", "properties": {"norad_id": 41382, "name": "EUTELSAT 65 WEST A", "group": "eutelsat", "lat": -0.03774167484769134, "lon": -38.76362167773792, "alt_km": 35779.92354398603, "timestamp": "2025-12-07T20:38:13.748917+00:00", "meta": {"OBJECT_NAME": "EUTELSAT 65 WEST A", "OBJECT_ID": "2016-014A", "EPOCH": "2025-12-07T06:28:33.604896", "MEAN_MOTION": 1.00269411, "ECCENTRICITY": 0.00028789, "INCLINATION": 0.049, "RA_OF_ASC_NODE": 357.376, "ARG_OF_PERICENTER": 268.34, "MEAN_ANOMALY": 202.5062, "EPHEMERIS_TYPE": 0, "CLASSIFICATION_TYPE": "U", "NORAD_CAT_ID": 41382, "ELEMENT_SET_NO": 999, "REV_AT_EPOCH": 3561, "BSTAR": 0, "MEAN_MOTION_DOT": -2.72e-06, "MEAN_MOTION_DDOT": 0}, "tle": {"line1": "1 41382U 16014A   25341.26983339 -.00000272  00000+0  00000+0 0  9998", "line2": "2 41382   0.0490 357.3760 0002878 268.3400 202.5062  1.00269411 35618"}}, "geometry": {"type": "Point", "coordinates": [-38.76362167773792, -0.03774167484769134]}}, {"type": "Feature", "properties": {"norad_id": 41589, "name": "EUTELSAT 117 WEST B", "group": "eutelsat", "lat": 0.01603473507758721, "lon": -90.58152327716833, "alt_km": 35788.102027413865, "timestamp": "2025-12-07T20:38:13.748928+00:00", "meta": {"OBJECT_NAME": "EUTELSAT 117 WEST B", "OBJECT_ID": "2016-038B", "EPOCH": "2025-12-07T06:13:50.016288", "MEAN_MOTION": 1.00269281, "ECCENTRICITY": 3.842e-05, "INCLINATION": 0.0046, "RA_OF_ASC_NODE": 145.3328, "ARG_OF_PERICENTER": 269.6344, "MEAN_ANOMALY": 357.7751, "EPHEMERIS_TYPE": 0, "CLASSIFICATION_TYPE": "U", "NORAD_CAT_ID": 41589, "ELEMENT_SET_NO": 999, "REV_AT_EPOCH": 3473, "BSTAR": 0, "MEAN_MOTION_DOT": -7e-08, "MEAN_MOTION_DDOT": 0}, "tle": {"line1": "1 41589U 16038B   25341.25960667 -.00000007  00000+0  00000+0 0  9997", "line2": "2 41589   0.0046 145.3328 0000384 269.6344 357.7751  1.00269281 34735"}}, "geometry": {"type": "Point", "coordinates": [-90.58152327716833, 0.01603473507758721]}}]}